STARLINK-2022           
1 47643U 21012Z   24246.68459315  .00033726  00000+0  22702-2 0  9994
2 47643  53.0552  14.1535 0001337  57.1771 302.9347 15.06433932196917
